PIESAT A                
1 56153U 23047A   26068.57334807  .00005852  00000+0  32318-3 0  9994
2 56153  97.5034 257.1452 0002367  89.9230 270.2273 15.14302818162729
PIESAT D                
1 56156U 23047D   26068.57334559  .00005148  00000+0  28476-3 0  9999
2 56156  97.5049 257.1462 0001784  95.5605 264.5831 15.14301886162720
